{
  "generated_at": "2026-07-13T07:11:34Z",
  "source": "CelesTrak SATCAT gp.php?GROUP=active (HEAD cache, no fetch)",
  "schema_version": "1.0",
  "records": [
    {
      "name": "TIANMU-1 20",
      "norad_id": 58661,
      "intl_designator": "23208-261",
      "line1": "1 58661U 23208B   26186.60252751  .00009574  00000+0  30210-3 0  9995",
      "line2": "2 58661  97.4461 303.6556 0005684 252.1647 107.8975 15.33058075140242",
      "category": "weather"
    },
    {
      "name": "TIANMU-1 21",
      "norad_id": 58662,
      "intl_designator": "23208-261",
      "line1": "1 58662U 23208C   26186.62803917  .00010922  00000+0  31949-3 0  9993",
      "line2": "2 58662  97.4521 306.4425 0005890 242.6075 117.4570 15.35424969140399",
      "category": "weather"
    },
    {
      "name": "TIANMU-1 22",
      "norad_id": 58663,
      "intl_designator": "23208-261",
      "line1": "1 58663U 23208D   26186.56711866  .00008240  00000+0  27489-3 0  9992",
      "line2": "2 58663  97.4515 302.8858 0002200 270.8400  89.2589 15.31329021140148",
      "category": "weather"
    },
    {
      "name": "TIANMU-1 15",
      "norad_id": 58700,
      "intl_designator": "24004-261",
      "line1": "1 58700U 24004A   26186.64467409  .00006424  00000+0  24628-3 0  9993",
      "line2": "2 58700  97.4673  12.8352 0005662 270.8477  89.2113 15.26844606138595",
      "category": "weather"
    },
    {
      "name": "TIANMU-1 16",
      "norad_id": 58701,
      "intl_designator": "24004-261",
      "line1": "1 58701U 24004B   26186.63478455  .00005802  00000+0  22209-3 0  9998",
      "line2": "2 58701  97.4621  12.0472 0004381 292.2189  67.8584 15.26946147138596",
      "category": "weather"
    },
    {
      "name": "TIANMU-1 17",
      "norad_id": 58702,
      "intl_designator": "24004-261",
      "line1": "1 58702U 24004C   26186.62025476  .00005936  00000+0  22718-3 0  9992",
      "line2": "2 58702  97.4648  12.5243 0003953 300.1839  59.9008 15.26943841138582",
      "category": "weather"
    },
    {
      "name": "TIANMU-1 18",
      "norad_id": 58703,
      "intl_designator": "24004-261",
      "line1": "1 58703U 24004D   26186.66135102  .00006584  00000+0  25226-3 0  9992",
      "line2": "2 58703  97.4666  12.8270 0003354 272.4830  87.6025 15.26862613138598",
      "category": "weather"
    },
    {
      "name": "INSAT-3DS",
      "norad_id": 58990,
      "intl_designator": "24033-261",
      "line1": "1 58990U 24033A   26186.59293403 -.00000142  00000+0  00000+0 0  9997",
      "line2": "2 58990   0.0779  96.1011 0001190  15.6392 107.3634  1.00273015 47252",
      "category": "weather"
    },
    {
      "name": "METEOR-M2 4",
      "norad_id": 59051,
      "intl_designator": "24039-261",
      "line1": "1 59051U 24039A   26186.61303387  .00000020  00000+0  28449-4 0  9994",
      "line2": "2 59051  98.7020 145.6802 0008121 112.6176 247.5862 14.22431409121884",
      "category": "weather"
    },
    {
      "name": "GOES 19",
      "norad_id": 60133,
      "intl_designator": "24119-261",
      "line1": "1 60133U 24119A   26186.56160507 -.00000235  00000+0  00000+0 0  9992",
      "line2": "2 60133   0.0028  75.2601 0000413  90.4365 244.8406  1.00272630  7142",
      "category": "weather"
    },
    {
      "name": "MTG-S1",
      "norad_id": 64723,
      "intl_designator": "25143-261",
      "line1": "1 64723U 25143A   26186.57659847  .00000006  00000+0  00000+0 0  9995",
      "line2": "2 64723   0.5899 342.7752 0003147 262.2333 245.6865  1.00272442  3608",
      "category": "weather"
    },
    {
      "name": "METOP-SGA1",
      "norad_id": 65159,
      "intl_designator": "25172-261",
      "line1": "1 65159U 25172A   26186.18034134  .00000073  00000+0  55019-4 0  9993",
      "line2": "2 65159  98.6633 245.5274 0007624   2.1322 357.9886 14.19818201 46349",
      "category": "weather"
    },
    {
      "name": "FENGYUN 3H",
      "norad_id": 65815,
      "intl_designator": "25219-261",
      "line1": "1 65815U 25219A   26186.29178859  .00000092  00000+0  63647-4 0  9996",
      "line2": "2 65815  98.6769 126.7091 0001364  65.4947 294.6372 14.19923761 39959",
      "category": "weather"
    }
  ]
}