OBJECT_NAME,OBJECT_ID,EPOCH,MEAN_MOTION,ECCENTRICITY,INCLINATION,RA_OF_ASC_NODE,ARG_OF_PERICENTER,MEAN_ANOMALY,EPHEMERIS_TYPE,CLASSIFICATION_TYPE,NORAD_CAT_ID,ELEMENT_SET_NO,REV_AT_EPOCH,BSTAR,MEAN_MOTION_DOT,MEAN_MOTION_DDOT
TIANMU-1 20,2023-208B,2026-07-05T14:27:38.376864,15.33058075,.00056848,97.4461,303.6556,252.1647,107.8975,0,U,58661,999,14024,.30210151E-3,.9574E-4,0
TIANMU-1 21,2023-208C,2026-07-05T15:04:22.584288,15.35424969,.00058904,97.4521,306.4425,242.6075,117.4570,0,U,58662,999,14039,.31948663E-3,.10922E-3,0
TIANMU-1 22,2023-208D,2026-07-05T13:36:39.052224,15.31329021,.00022005,97.4515,302.8858,270.8400,89.2589,0,U,58663,999,14014,.27488654E-3,.824E-4,0
TIANMU-1 15,2024-004A,2026-07-05T15:28:19.841376,15.26844606,.00056621,97.4673,12.8352,270.8477,89.2113,0,U,58700,999,13859,.24627874E-3,.6424E-4,0
TIANMU-1 16,2024-004B,2026-07-05T15:14:05.385120,15.26946147,.00043816,97.4621,12.0472,292.2189,67.8584,0,U,58701,999,13859,.22208925E-3,.5802E-4,0
TIANMU-1 17,2024-004C,2026-07-05T14:53:10.011264,15.26943841,.00039537,97.4648,12.5243,300.1839,59.9008,0,U,58702,999,13858,.22718039E-3,.5936E-4,0
TIANMU-1 18,2024-004D,2026-07-05T15:52:20.728128,15.26862613,.0003354,97.4666,12.8270,272.4830,87.6025,0,U,58703,999,13859,.25226499E-3,.6584E-4,0
INSAT-3DS,2024-033A,2026-07-05T14:13:49.500192,1.00273015,.00011907,0.0779,96.1011,15.6392,107.3634,0,U,58990,999,4725,0,-.142E-5,0
METEOR-M2 4,2024-039A,2026-07-05T14:42:46.126368,14.22431409,.00081212,98.7020,145.6802,112.6176,247.5862,0,U,59051,999,12188,.28449276E-4,.2E-6,0
GOES 19,2024-119A,2026-07-05T13:28:42.678048,1.00272630,.00004135,0.0028,75.2601,90.4365,244.8406,0,U,60133,999,714,0,-.235E-5,0
MTG-S1,2025-143A,2026-07-05T13:50:18.107808,1.00272442,.00031471,0.5899,342.7752,262.2333,245.6865,0,U,64723,999,360,0,.6E-7,0
METOP-SGA1,2025-172A,2026-07-05T04:19:41.491776,14.19818201,.0007624,98.6633,245.5274,2.1322,357.9886,0,U,65159,999,4634,.55019E-4,.73E-6,0
FENGYUN 3H,2025-219A,2026-07-05T07:00:10.534176,14.19923761,.0001364,98.6769,126.7091,65.4947,294.6372,0,U,65815,999,3995,.63647E-4,.92E-6,0
